NORAD_CAT_ID,OBJECT_NAME,OBJECT_TYPE,EPOCH,MEAN_MOTION,ECCENTRICITY,INCLINATION,RA_OF_ASC_NODE,ARG_OF_PERICENTER,MEAN_ANOMALY,BSTAR,MEAN_MOTION_DOT,MEAN_MOTION_DDOT,TLE_LINE0,TLE_LINE1,TLE_LINE2,SEMIMAJOR_AXIS,PERIOD,APOGEE,PERIGEE,DECAYED
53397.0,STARLINK-4515,PAYLOAD,2022-10-24 06:00:00,15.08822104,0.0002032999999999,53.2175,256.7642,36.0695,46.3588,-0.0025031999999999,-0.00039888,0.0,0 STARLINK-4515,1 53397U 22097K   22297.25001157 -.00039888  00000-0 -25032-2 0  9992,2 53397  53.2175 256.7642 0002033  36.0695  46.3588 15.08822104 11963,6917.935,95.439,541.207,538.394,0.0
53397.0,STARLINK-4515,PAYLOAD,2022-10-24 14:00:01,15.08801058,0.0001971,53.2177,255.2667,38.6939,55.2891,-0.0009111,-0.00014744,0.0,0 STARLINK-4515,1 53397U 22097K   22297.58334491 -.00014744  00000-0 -91110-3 0  9993,2 53397  53.2177 255.2667 0001971  38.6939  55.2891 15.08801058  1303,6917.999,95.44,541.2280000000002,538.501,0.0
53397.0,STARLINK-4515,PAYLOAD,2022-10-24 22:00:00,15.08789459,0.0001946,53.2181,253.7698,43.928,61.5931,0.004044,0.00064573,0.0,0 STARLINK-4515,1 53397U 22097K   22297.91667824  .00064573  00000-0  40440-2 0  9991,2 53397  53.2181 253.7698 0001946  43.9280  61.5931 15.08789459  1300,6918.035,95.441,541.246,538.554,0.0
53397.0,STARLINK-4515,PAYLOAD,2022-10-25 00:00:00,15.08809752,0.0002002,53.2181,253.3964,43.0706,155.3339,0.0023315,0.00036982,0.0,0 STARLINK-4515,1 53397U 22097K   22298.00001157  .00036982  00000-0  23315-2 0  9998,2 53397  53.2181 253.3964 0002002  43.0706 155.3339 15.08809752 12079,6917.973000000001,95.439,541.2230000000002,538.453,0.0
53397.0,STARLINK-4515,PAYLOAD,2022-10-25 14:00:01,15.08839894,0.0001998,53.2183,250.7777,41.4622,87.2089,-0.0021351,-0.00034108,0.0,0 STARLINK-4515,1 53397U 22097K   22298.58334491 -.00034108  00000-0 -21351-2 0  9999,2 53397  53.2183 250.7777 0001998  41.4622  87.2089 15.08839894 12161,6917.880999999999,95.438,541.128,538.364,0.0
53397.0,STARLINK-4515,PAYLOAD,2022-10-25 22:00:01,15.08835736,0.000194,53.2186,249.281,45.0332,95.2784,0.00059365,9.171e-05,0.0,0 STARLINK-4515,1 53397U 22097K   22298.91668981  .00009171  00000-0  59365-3 0  9997,2 53397  53.2186 249.2810 0001940  45.0332  95.2784 15.08835736  1306,6917.893,95.438,541.1,538.4159999999998,0.0
53397.0,STARLINK-4515,PAYLOAD,2022-10-26 08:00:01,15.08821746,0.000213,53.2183,247.4124,39.5537,205.2529,0.0033036999999999,0.00052658,0.0,0 STARLINK-4515,1 53397U 22097K   22299.33335648  .00052658  00000-0  33037-2 0  9990,2 53397  53.2183 247.4124 0002130  39.5537 205.2529 15.08821746 12272,6917.936,95.439,541.275,538.328,0.0
53397.0,STARLINK-4515,PAYLOAD,2022-10-26 14:00:01,15.08856876,0.0001958,53.2184,246.2888,43.1259,120.3108,-0.0006768,-0.00011048,0.0,0 STARLINK-4515,1 53397U 22097K   22299.58334491 -.00011048  00000-0 -67680-3 0  9994,2 53397  53.2184 246.2888 0001958  43.1259 120.3108 15.08856876  1300,6917.829000000002,95.436,541.048,538.339,0.0
53397.0,STARLINK-4515,PAYLOAD,2022-10-26 22:00:00,15.08841276,0.000195,53.2176,244.7811,43.1559,131.9016,-0.00044062,-7.294e-05,0.0,0 STARLINK-4515,1 53397U 22097K   22299.91667824 -.00007294  00000-0 -44062-3 0  9997,2 53397  53.2176 244.7811 0001950  43.1559 131.9016 15.08841276  1309,6917.876,95.437,541.09,538.393,0.0
53397.0,STARLINK-4515,PAYLOAD,2022-10-27 14:00:01,15.08864603,0.0001821999999999,53.218,241.7999,41.8388,156.47799999999995,-0.0027122,-0.00043224,0.0,0 STARLINK-4515,1 53397U 22097K   22300.58335648 -.00043224  00000-0 -27122-2 0  9999,2 53397  53.2180 241.7999 0001822  41.8388 156.4780 15.08864603  1300,6917.805,95.436,540.931,538.41,0.0
53397.0,STARLINK-4515,PAYLOAD,2022-10-27 22:00:00,15.08850802,0.0001769,53.2181,240.3039,44.4882,165.3669,0.00016069,2.271e-05,0.0,0 STARLINK-4515,1 53397U 22097K   22300.91667824  .00002271  00000-0  16069-3 0  9994,2 53397  53.2181 240.3039 0001769  44.4882 165.3669 15.08850802  1300,6917.847,95.437,540.936,538.489,0.0
53397.0,STARLINK-4515,PAYLOAD,2022-10-28 08:00:01,15.08851093,0.0001906,53.2173,238.4348,37.3069,277.123,-0.00030585,-5.154e-05,0.0,0 STARLINK-4515,1 53397U 22097K   22301.33335648 -.00005154  00000-0 -30585-3 0  9991,2 53397  53.2173 238.4348 0001906  37.3069 277.1230 15.08851093 12584,6917.846,95.437,541.03,538.393,0.0
53397.0,STARLINK-4515,PAYLOAD,2022-10-28 14:00:01,15.08841565,0.0001761999999999,53.2175,237.3111,41.2496,191.8884,0.00033125,4.988e-05,0.0,0 STARLINK-4515,1 53397U 22097K   22301.58335648  .00004988  00000-0  33125-3 0  9993,2 53397  53.2175 237.3111 0001762  41.2496 191.8884 15.08841565  1308,6917.876,95.437,540.96,538.5219999999998,0.0
53397.0,STARLINK-4515,PAYLOAD,2022-10-28 22:00:01,15.0885074,0.0001827,53.2173,235.8152,45.5874,199.1451,-0.0015732,-0.00025246,0.0,0 STARLINK-4515,1 53397U 22097K   22301.91668981 -.00025246  00000-0 -15732-2 0  9994,2 53397  53.2173 235.8152 0001827  45.5874 199.1451 15.08850740  1309,6917.848000000001,95.437,540.976,538.4490000000002,0.0
53397.0,STARLINK-4515,PAYLOAD,2022-10-29 12:00:00,15.08833738,0.0001851,53.217,233.1971,42.4641,132.4929,-0.00096773,-0.00015654,0.0,0 STARLINK-4515,1 53397U 22097K   22302.50001157 -.00015654  00000-0 -96773-3 0  9993,2 53397  53.2170 233.1971 0001851  42.4641 132.4929 15.08833738  1309,6917.9,95.438,541.045,538.484,0.0
53397.0,STARLINK-4515,PAYLOAD,2022-10-29 22:00:01,15.08882413,0.0001806,53.2168,231.3263,44.6712,234.8663,-0.0010620999999999,-0.00017171,0.0,0 STARLINK-4515,1 53397U 22097K   22302.91668981 -.00017171  00000-0 -10621-2 0  9995,2 53397  53.2168 231.3263 0001806  44.6712 234.8663 15.08882413  1309,6917.751,95.435,540.865,538.366,0.0
53397.0,STARLINK-4515,PAYLOAD,2022-10-30 00:00:00,15.08893729,0.0001857,53.2168,230.9528,42.0306,330.3508,-0.0031364,-0.00049932,0.0,0 STARLINK-4515,1 53397U 22097K   22303.00001157 -.00049932  00000-0 -31364-2 0  9999,2 53397  53.2168 230.9528 0001857  42.0306 330.3508 15.08893729 12837,6917.715999999999,95.434,540.866,538.297,0.0
53397.0,STARLINK-4515,PAYLOAD,2022-10-30 14:00:01,15.08821886,0.0001799,53.2168,228.3332,40.089,262.6327,-0.0027535999999999,-0.00043824,0.0,0 STARLINK-4515,1 53397U 22097K   22303.58334491 -.00043824  00000-0 -27536-2 0  9992,2 53397  53.2168 228.3332 0001799  40.0890 262.6327 15.08821886  1303,6917.936,95.439,541.045,538.556,0.0
53397.0,STARLINK-4515,PAYLOAD,2022-10-30 22:00:01,15.0880245,0.0001966999999999,53.2168,226.8373,45.2448,269.0946,-0.00069091,-0.00011256,0.0,0 STARLINK-4515,1 53397U 22097K   22303.91668981 -.00011256  00000-0 -69091-3 0  9990,2 53397  53.2168 226.8373 0001967  45.2448 269.0946 15.08802450  1308,6917.995,95.44,541.221,538.499,0.0
53397.0,STARLINK-4515,PAYLOAD,2022-10-31 14:00:01,15.08800622,0.0001992,53.217,223.8444,45.2286,292.153,0.0029122,0.00046315,0.0,0 STARLINK-4515,1 53397U 22097K   22304.58334491  .00046315  00000-0  29122-2 0  9992,2 53397  53.2170 223.8444 0001992  45.2286 292.1530 15.08800622  1300,6918.001,95.44,541.244,538.488,0.0
53397.0,STARLINK-4515,PAYLOAD,2022-10-31 22:00:01,15.08859517,0.0002046999999999,53.2172,222.3485,45.7337,303.272,-0.0020272,-0.00032424,0.0,0 STARLINK-4515,1 53397U 22097K   22304.91668981 -.00032424  00000-0 -20272-2 0  9998,2 53397  53.2172 222.3485 0002047  45.7337 303.2720 15.08859517  1307,6917.821,95.436,541.102,538.27,0.0
53397.0,STARLINK-4515,PAYLOAD,2022-11-01 00:00:02,15.08861391,0.0002114,53.217,221.975,44.3429,37.5641,-0.003008,-0.00047872,0.0,0 STARLINK-4515,1 53397U 22097K   22305.00002315 -.00047872  00000-0 -30080-2 0  9993,2 53397  53.2170 221.9750 0002114  44.3429  37.5641 15.08861391 13133,6917.815,95.436,541.1419999999998,538.2180000000002,0.0
53397.0,STARLINK-4515,PAYLOAD,2022-11-01 14:00:01,15.08839454,0.0001919,53.2173,219.3552,43.9658,328.1887,0.00055404,8.540000000000003e-05,0.0,0 STARLINK-4515,1 53397U 22097K   22305.58334491  .00008540  00000-0  55404-3 0  9994,2 53397  53.2173 219.3552 0001919  43.9658 328.1887 15.08839454 13224,6917.882,95.438,541.075,538.42,0.0
53397.0,STARLINK-4515,PAYLOAD,2022-11-01 22:00:00,15.08844983,0.0001943999999999,53.2175,217.8596,42.4267,341.3246,-0.00075528,-0.0001229,0.0,0 STARLINK-4515,1 53397U 22097K   22305.91667824 -.00012290  00000-0 -75528-3 0  9998,2 53397  53.2175 217.8596 0001944  42.4267 341.3246 15.08844983  1300,6917.865,95.437,541.075,538.385,0.0
53397.0,STARLINK-4515,PAYLOAD,2022-11-02 14:00:01,15.08815784,0.0001776999999999,53.2176,214.8634,42.4955,4.4623,0.0023710999999999,0.00037625,0.0,0 STARLINK-4515,1 53397U 22097K   22306.58334491  .00037625  00000-0  23711-2 0  9996,2 53397  53.2176 214.8634 0001777  42.4955   4.4623 15.08815784 13372,6917.954000000002,95.439,541.049,538.59,0.0
53397.0,STARLINK-4515,PAYLOAD,2022-11-02 18:00:02,15.08852556,0.0001814,53.2174,214.1124,47.5079,185.2957,-0.0019728,-0.00031559,0.0,0 STARLINK-4515,1 53397U 22097K   22306.75002315 -.00031559  00000-0 -19728-2 0  9997,2 53397  53.2174 214.1124 0001814  47.5079 185.2957 15.08852556  1308,6917.842,95.437,540.962,538.452,0.0
53397.0,STARLINK-4515,PAYLOAD,2022-11-03 04:06:04,15.08837868,0.0001973,53.2176,212.2294,45.5278,314.5875,1.5483e-05,-4.2e-07,0.0,0 STARLINK-4515,1 53397U 22097K   22307.17089061 -.00000042  00000-0  15483-4 0  9995,2 53397  53.2176 212.2294 0001973  45.5278 314.5875 15.08837868 13467,6917.887,95.438,541.117,538.387,0.0
53397.0,STARLINK-4515,PAYLOAD,2022-11-03 10:27:37,15.08841339,0.0001952,53.2178,211.0403,46.2601,313.8553,2.0822e-05,4.3e-07,0.0,0 STARLINK-4515,1 53397U 22097K   22307.43584873  .00000043  00000-0  20822-4 0  9998,2 53397  53.2178 211.0403 0001952  46.2601 313.8553 15.08841339 13994,6917.876,95.437,541.092,538.391,0.0
53397.0,STARLINK-4515,PAYLOAD,2022-11-03 18:24:32,15.0885075,0.0001915,53.2188,209.552,31.9033,328.2075,0.00013923,1.929e-05,0.0,0 STARLINK-4515,1 53397U 22097K   22307.76704122  .00001929  00000-0  13923-3 0  9992,2 53397  53.2188 209.5520 0001915  31.9033 328.2075 15.08850750 13554,6917.848000000001,95.437,541.0369999999998,538.388,0.0
